{
  "type": "FeatureCollection",
  "features": [
    {
      "type": "Feature",
      "properties": {
        "norad_id": 39773,
        "name": "EUTELSAT 3B",
        "group": "eutelsat",
        "lat": 0.019232946420526826,
        "lon": 163.13675428247336,
        "alt_km": 35778.143044248514,
        "timestamp": "2025-12-05T05:43:14.785678+00:00",
        "meta_object_name": "EUTELSAT 3B",
        "meta_object_id": "2014-030A",
        "meta_epoch": "2025-12-04T13:44:27.028320",
        "meta_mean_motion": 1.00271062,
        "meta_eccentricity": 0.0004772,
        "meta_inclination": 0.0634,
        "meta_ra_of_asc_node": 5.1533,
        "meta_arg_of_pericenter": 224.1164,
        "meta_mean_anomaly": 53.5813,
        "meta_ephemeris_type": 0,
        "meta_classification_type": "U",
        "meta_norad_cat_id": 39773,
        "meta_element_set_no": 999,
        "meta_rev_at_epoch": 4211,
        "meta_bstar": 0,
        "meta_mean_motion_dot": 3.4e-07,
        "meta_mean_motion_ddot": 0,
        "tle_line1": "1 39773U 14030A   25338.57253505  .00000034  00000+0  00000+0 0  9995",
        "tle_line2": "2 39773   0.0634   5.1533 0004772 224.1164  53.5813  1.00271062 42113"
      },
      "geometry": {
        "type": "Point",
        "coordinates": [
          163.13675428247336,
          0.019232946420526826
        ]
      }
    },
    {
      "type": "Feature",
      "properties": {
        "norad_id": 40425,
        "name": "EUTELSAT 115 WEST B",
        "group": "eutelsat",
        "lat": -0.010588172024730665,
        "lon": 45.22482759453156,
        "alt_km": 35783.37771643754,
        "timestamp": "2025-12-05T05:43:14.785689+00:00",
        "meta_object_name": "EUTELSAT 115 WEST B",
        "meta_object_id": "2015-010B",
        "meta_epoch": "2025-12-04T13:10:52.742784",
        "meta_mean_motion": 1.00275299,
        "meta_eccentricity": 4.04e-05,
        "meta_inclination": 0.0149,
        "meta_ra_of_asc_node": 139.4558,
        "meta_arg_of_pericenter": 272.1995,
        "meta_mean_anomaly": 104.8079,
        "meta_ephemeris_type": 0,
        "meta_classification_type": "U",
        "meta_norad_cat_id": 40425,
        "meta_element_set_no": 999,
        "meta_rev_at_epoch": 3944,
        "meta_bstar": 0,
        "meta_mean_motion_dot": -1.1e-07,
        "meta_mean_motion_ddot": 0,
        "tle_line1": "1 40425U 15010B   25338.54922156 -.00000011  00000+0  00000+0 0  9998",
        "tle_line2": "2 40425   0.0149 139.4558 0000404 272.1995 104.8079  1.00275299 39443"
      },
      "geometry": {
        "type": "Point",
        "coordinates": [
          45.22482759453156,
          -0.010588172024730665
        ]
      }
    },
    {
      "type": "Feature",
      "properties": {
        "norad_id": 40875,
        "name": "EUTELSAT 8 WEST B",
        "group": "eutelsat",
        "lat": 0.019173359977139006,
        "lon": 152.05639988906893,
        "alt_km": 35790.22999107322,
        "timestamp": "2025-12-05T05:43:14.785701+00:00",
        "meta_object_name": "EUTELSAT 8 WEST B",
        "meta_object_id": "2015-039B",
        "meta_epoch": "2025-12-04T10:15:43.580736",
        "meta_mean_motion": 1.00271635,
        "meta_eccentricity": 0.0004127,
        "meta_inclination": 0.0652,
        "meta_ra_of_asc_node": 349.5368,
        "meta_arg_of_pericenter": 266.1668,
        "meta_mean_anomaly": 323.7381,
        "meta_ephemeris_type": 0,
        "meta_classification_type": "U",
        "meta_norad_cat_id": 40875,
        "meta_element_set_no": 999,
        "meta_rev_at_epoch": 3770,
        "meta_bstar": 0,
        "meta_mean_motion_dot": -5e-07,
        "meta_mean_motion_ddot": 0,
        "tle_line1": "1 40875U 15039B   25338.42758774 -.00000050  00000+0  00000+0 0  9991",
        "tle_line2": "2 40875   0.0652 349.5368 0004127 266.1668 323.7381  1.00271635 37705"
      },
      "geometry": {
        "type": "Point",
        "coordinates": [
          152.05639988906893,
          0.019173359977139006
        ]
      }
    },
    {
      "type": "Feature",
      "properties": {
        "norad_id": 41310,
        "name": "EUTELSAT 9B",
        "group": "eutelsat",
        "lat": 0.0542952539266174,
        "lon": 169.02446739339317,
        "alt_km": 35788.47915657141,
        "timestamp": "2025-12-05T05:43:14.785713+00:00",
        "meta_object_name": "EUTELSAT 9B",
        "meta_object_id": "2016-005A",
        "meta_epoch": "2025-12-04T13:46:11.860032",
        "meta_mean_motion": 1.00271663,
        "meta_eccentricity": 0.0004969,
        "meta_inclination": 0.0689,
        "meta_ra_of_asc_node": 75.4644,
        "meta_arg_of_pericenter": 190.3193,
        "meta_mean_anomaly": 23.398,
        "meta_ephemeris_type": 0,
        "meta_classification_type": "U",
        "meta_norad_cat_id": 41310,
        "meta_element_set_no": 999,
        "meta_rev_at_epoch": 3616,
        "meta_bstar": 0,
        "meta_mean_motion_dot": 7.6e-07,
        "meta_mean_motion_ddot": 0,
        "tle_line1": "1 41310U 16005A   25338.57374838  .00000076  00000+0  00000+0 0  9998",
        "tle_line2": "2 41310   0.0689  75.4644 0004969 190.3193  23.3980  1.00271663 36165"
      },
      "geometry": {
        "type": "Point",
        "coordinates": [
          169.02446739339317,
          0.0542952539266174
        ]
      }
    },
    {
      "type": "Feature",
      "properties": {
        "norad_id": 41382,
        "name": "EUTELSAT 65 WEST A",
        "group": "eutelsat",
        "lat": 0.06904198644565337,
        "lon": 94.87983418261882,
        "alt_km": 35798.26094772398,
        "timestamp": "2025-12-05T05:43:14.785724+00:00",
        "meta_object_name": "EUTELSAT 65 WEST A",
        "meta_object_id": "2016-014A",
        "meta_epoch": "2025-12-04T13:24:58.893408",
        "meta_mean_motion": 1.00270224,
        "meta_eccentricity": 0.0002832,
        "meta_inclination": 0.0497,
        "meta_ra_of_asc_node": 348.6097,
        "meta_arg_of_pericenter": 272.9646,
        "meta_mean_anomaly": 308.0993,
        "meta_ephemeris_type": 0,
        "meta_classification_type": "U",
        "meta_norad_cat_id": 41382,
        "meta_element_set_no": 999,
        "meta_rev_at_epoch": 3558,
        "meta_bstar": 0,
        "meta_mean_motion_dot": -2.62e-06,
        "meta_mean_motion_ddot": 0,
        "tle_line1": "1 41382U 16014A   25338.55901497 -.00000262  00000+0  00000+0 0  9990",
        "tle_line2": "2 41382   0.0497 348.6097 0002832 272.9646 308.0993  1.00270224 35589"
      },
      "geometry": {
        "type": "Point",
        "coordinates": [
          94.87983418261882,
          0.06904198644565337
        ]
      }
    },
    {
      "type": "Feature",
      "properties": {
        "norad_id": 41589,
        "name": "EUTELSAT 117 WEST B",
        "group": "eutelsat",
        "lat": -0.018130024628424345,
        "lon": 43.08521618614724,
        "alt_km": 35785.993454618234,
        "timestamp": "2025-12-05T05:43:14.785736+00:00",
        "meta_object_name": "EUTELSAT 117 WEST B",
        "meta_object_id": "2016-038B",
        "meta_epoch": "2025-12-04T10:48:15.329952",
        "meta_mean_motion": 1.00269296,
        "meta_eccentricity": 2.1e-05,
        "meta_inclination": 0.0071,
        "meta_ra_of_asc_node": 152.5773,
        "meta_arg_of_pericenter": 282.2107,
        "meta_mean_anomaly": 43.7985,
        "meta_ephemeris_type": 0,
        "meta_classification_type": "U",
        "meta_norad_cat_id": 41589,
        "meta_element_set_no": 999,
        "meta_rev_at_epoch": 3471,
        "meta_bstar": 0,
        "meta_mean_motion_dot": 4e-08,
        "meta_mean_motion_ddot": 0,
        "tle_line1": "1 41589U 16038B   25338.45017743  .00000004  00000+0  00000+0 0  9999",
        "tle_line2": "2 41589   0.0071 152.5773 0000210 282.2107  43.7985  1.00269296 34718"
      },
      "geometry": {
        "type": "Point",
        "coordinates": [
          43.08521618614724,
          -0.018130024628424345
        ]
      }
    },
    {
      "type": "Feature",
      "properties": {
        "norad_id": 42741,
        "name": "EUTELSAT 172B",
        "group": "eutelsat",
        "lat": -0.0001018090587710615,
        "lon": -27.906785144802267,
        "alt_km": 35786.61068603967,
        "timestamp": "2025-12-05T05:43:14.785748+00:00",
        "meta_object_name": "EUTELSAT 172B",
        "meta_object_id": "2017-029B",
        "meta_epoch": "2025-12-04T12:50:38.628384",
        "meta_mean_motion": 1.0027119,
        "meta_eccentricity": 1.71e-05,
        "meta_inclination": 0.0081,
        "meta_ra_of_asc_node": 80.5787,
        "meta_arg_of_pericenter": 128.2888,
        "meta_mean_anomaly": 229.3994,
        "meta_ephemeris_type": 0,
        "meta_classification_type": "U",
        "meta_norad_cat_id": 42741,
        "meta_element_set_no": 999,
        "meta_rev_at_epoch": 3177,
        "meta_bstar": 0,
        "meta_mean_motion_dot": 9e-08,
        "meta_mean_motion_ddot": 0,
        "tle_line1": "1 42741U 17029B   25338.53516931  .00000009  00000+0  00000+0 0  9998",
        "tle_line2": "2 42741   0.0081  80.5787 0000171 128.2888 229.3994  1.00271190 31777"
      },
      "geometry": {
        "type": "Point",
        "coordinates": [
          -27.906785144802267,
          -0.0001018090587710615
        ]
      }
    }
  ]
}